{
  "type": "FeatureCollection",
  "features": [
    {
      "type": "Feature",
      "properties": {
        "norad_id": 28899,
        "name": "INMARSAT 4-F2 (SOUTHPAN/PRN 122)",
        "group": "gnss",
        "lat": -4.157648409181181,
        "lon": -77.7496852078846,
        "alt_km": 35774.67435330402,
        "timestamp": "2025-12-12T03:50:52.658673+00:00",
        "meta_object_name": "INMARSAT 4-F2 (SOUTHPAN/PRN 122)",
        "meta_object_id": "2005-044A",
        "meta_epoch": "2025-12-11T00:54:38.664864",
        "meta_mean_motion": 1.00271138,
        "meta_eccentricity": 0.00030629,
        "meta_inclination": 4.851,
        "meta_ra_of_asc_node": 43.6876,
        "meta_arg_of_pericenter": 219.4824,
        "meta_mean_anomaly": 333.9996,
        "meta_ephemeris_type": 0,
        "meta_classification_type": "U",
        "meta_norad_cat_id": 28899,
        "meta_element_set_no": 999,
        "meta_rev_at_epoch": 7363,
        "meta_bstar": 0,
        "meta_mean_motion_dot": -2.56e-06,
        "meta_mean_motion_ddot": 0,
        "tle_line1": "1 28899U 05044A   25345.03794751 -.00000256  00000+0  00000+0 0  9996",
        "tle_line2": "2 28899   4.8510  43.6876 0003062 219.4824 333.9996  1.00271138 73635"
      },
      "geometry": {
        "type": "Point",
        "coordinates": [
          -77.7496852078846,
          -4.157648409181181
        ]
      }
    },
    {
      "type": "Feature",
      "properties": {
        "norad_id": 29486,
        "name": "GPS BIIRM-2 (PRN 31)",
        "group": "gnss",
        "lat": 54.101046444467244,
        "lon": -99.5514398109509,
        "alt_km": 19973.070653315903,
        "timestamp": "2025-12-12T03:50:52.658685+00:00",
        "meta_object_name": "GPS BIIRM-2 (PRN 31)",
        "meta_object_id": "2006-042A",
        "meta_epoch": "2025-12-11T13:05:34.988640",
        "meta_mean_motion": 2.00554186,
        "meta_eccentricity": 0.01073607,
        "meta_inclination": 54.694,
        "meta_ra_of_asc_node": 158.788,
        "meta_arg_of_pericenter": 51.9324,
        "meta_mean_anomaly": 320.1242,
        "meta_ephemeris_type": 0,
        "meta_classification_type": "U",
        "meta_norad_cat_id": 29486,
        "meta_element_set_no": 999,
        "meta_rev_at_epoch": 14063,
        "meta_bstar": 0,
        "meta_mean_motion_dot": 8.8e-07,
        "meta_mean_motion_ddot": 0,
        "tle_line1": "1 29486U 06042A   25345.54554385  .00000088  00000+0  00000+0 0  9993",
        "tle_line2": "2 29486  54.6940 158.7880 0107360  51.9324 320.1242  2.00554186140636"
      },
      "geometry": {
        "type": "Point",
        "coordinates": [
          -99.5514398109509,
          54.101046444467244
        ]
      }
    },
    {
      "type": "Feature",
      "properties": {
        "norad_id": 29601,
        "name": "GPS BIIRM-3 (PRN 12)",
        "group": "gnss",
        "lat": 20.671477771216704,
        "lon": 26.094207872502235,
        "alt_km": 20086.281566537877,
        "timestamp": "2025-12-12T03:50:52.658698+00:00",
        "meta_object_name": "GPS BIIRM-3 (PRN 12)",
        "meta_object_id": "2006-052A",
        "meta_epoch": "2025-12-10T22:50:57.183936",
        "meta_mean_motion": 2.00573418,
        "meta_eccentricity": 0.00877701,
        "meta_inclination": 54.9709,
        "meta_ra_of_asc_node": 221.4692,
        "meta_arg_of_pericenter": 87.4134,
        "meta_mean_anomaly": 273.6662,
        "meta_ephemeris_type": 0,
        "meta_classification_type": "U",
        "meta_norad_cat_id": 29601,
        "meta_element_set_no": 999,
        "meta_rev_at_epoch": 13963,
        "meta_bstar": 0,
        "meta_mean_motion_dot": 3e-08,
        "meta_mean_motion_ddot": 0,
        "tle_line1": "1 29601U 06052A   25344.95205074  .00000003  00000+0  00000+0 0  9992",
        "tle_line2": "2 29601  54.9709 221.4692 0087770  87.4134 273.6662  2.00573418139630"
      },
      "geometry": {
        "type": "Point",
        "coordinates": [
          26.094207872502235,
          20.671477771216704
        ]
      }
    },
    {
      "type": "Feature",
      "properties": {
        "norad_id": 32260,
        "name": "GPS BIIRM-4 (PRN 15)",
        "group": "gnss",
        "lat": -48.25037355800143,
        "lon": 33.19609602377013,
        "alt_km": 20572.52393174267,
        "timestamp": "2025-12-12T03:50:52.658711+00:00",
        "meta_object_name": "GPS BIIRM-4 (PRN 15)",
        "meta_object_id": "2007-047A",
        "meta_epoch": "2025-12-10T06:15:19.310688",
        "meta_mean_motion": 2.00564571,
        "meta_eccentricity": 0.0164232,
        "meta_inclination": 53.9536,
        "meta_ra_of_asc_node": 87.861,
        "meta_arg_of_pericenter": 85.2178,
        "meta_mean_anomaly": 276.6503,
        "meta_ephemeris_type": 0,
        "meta_classification_type": "U",
        "meta_norad_cat_id": 32260,
        "meta_element_set_no": 999,
        "meta_rev_at_epoch": 13302,
        "meta_bstar": 0,
        "meta_mean_motion_dot": -1.7e-07,
        "meta_mean_motion_ddot": 0,
        "tle_line1": "1 32260U 07047A   25344.26064017 -.00000017  00000+0  00000+0 0  9992",
        "tle_line2": "2 32260  53.9536  87.8610 0164232  85.2178 276.6503  2.00564571133023"
      },
      "geometry": {
        "type": "Point",
        "coordinates": [
          33.19609602377013,
          -48.25037355800143
        ]
      }
    },
    {
      "type": "Feature",
      "properties": {
        "norad_id": 32275,
        "name": "COSMOS 2433 (720)",
        "group": "gnss",
        "lat": 6.605106416904733,
        "lon": -34.78338420291827,
        "alt_km": 19135.34879788896,
        "timestamp": "2025-12-12T03:50:52.658723+00:00",
        "meta_object_name": "COSMOS 2433 (720)",
        "meta_object_id": "2007-052A",
        "meta_epoch": "2025-12-10T06:34:19.673184",
        "meta_mean_motion": 2.13103813,
        "meta_eccentricity": 0.00055546,
        "meta_inclination": 65.6847,
        "meta_ra_of_asc_node": 322.2886,
        "meta_arg_of_pericenter": 252.6006,
        "meta_mean_anomaly": 107.3381,
        "meta_ephemeris_type": 0,
        "meta_classification_type": "U",
        "meta_norad_cat_id": 32275,
        "meta_element_set_no": 999,
        "meta_rev_at_epoch": 14103,
        "meta_bstar": 0,
        "meta_mean_motion_dot": -5e-07,
        "meta_mean_motion_ddot": 0,
        "tle_line1": "1 32275U 07052A   25344.27383881 -.00000050  00000+0  00000+0 0  9995",
        "tle_line2": "2 32275  65.6847 322.2886 0005554 252.6006 107.3381  2.13103813141032"
      },
      "geometry": {
        "type": "Point",
        "coordinates": [
          -34.78338420291827,
          6.605106416904733
        ]
      }
    },
    {
      "type": "Feature",
      "properties": {
        "norad_id": 32276,
        "name": "COSMOS 2432 (719)",
        "group": "gnss",
        "lat": -42.90064711665541,
        "lon": -62.48175868873462,
        "alt_km": 19106.344107807345,
        "timestamp": "2025-12-12T03:50:52.658734+00:00",
        "meta_object_name": "COSMOS 2432 (719)",
        "meta_object_id": "2007-052B",
        "meta_epoch": "2025-12-10T13:56:19.351392",
        "meta_mean_motion": 2.13102999,
        "meta_eccentricity": 0.0011254,
        "meta_inclination": 65.7001,
        "meta_ra_of_asc_node": 322.4023,
        "meta_arg_of_pericenter": 311.5771,
        "meta_mean_anomaly": 228.309,
        "meta_ephemeris_type": 0,
        "meta_classification_type": "U",
        "meta_norad_cat_id": 32276,
        "meta_element_set_no": 999,
        "meta_rev_at_epoch": 14106,
        "meta_bstar": 0,
        "meta_mean_motion_dot": -5e-07,
        "meta_mean_motion_ddot": 0,
        "tle_line1": "1 32276U 07052B   25344.58077953 -.00000050  00000+0  00000+0 0  9990",
        "tle_line2": "2 32276  65.7001 322.4023 0011254 311.5771 228.3090  2.13102999141067"
      },
      "geometry": {
        "type": "Point",
        "coordinates": [
          -62.48175868873462,
          -42.90064711665541
        ]
      }
    },
    {
      "type": "Feature",
      "properties": {
        "norad_id": 32384,
        "name": "GPS BIIRM-5 (PRN 29)",
        "group": "gnss",
        "lat": 46.68723210330122,
        "lon": -30.84434591643621,
        "alt_km": 20190.15325638105,
        "timestamp": "2025-12-12T03:50:52.658746+00:00",
        "meta_object_name": "GPS BIIRM-5 (PRN 29)",
        "meta_object_id": "2007-062A",
        "meta_epoch": "2025-12-11T07:35:29.001696",
        "meta_mean_motion": 2.00577198,
        "meta_eccentricity": 0.00322342,
        "meta_inclination": 55.1834,
        "meta_ra_of_asc_node": 281.703,
        "meta_arg_of_pericenter": 162.5016,
        "meta_mean_anomaly": 10.7784,
        "meta_ephemeris_type": 0,
        "meta_classification_type": "U",
        "meta_norad_cat_id": 32384,
        "meta_element_set_no": 999,
        "meta_rev_at_epoch": 13174,
        "meta_bstar": 0,
        "meta_mean_motion_dot": -7e-07,
        "meta_mean_motion_ddot": 0,
        "tle_line1": "1 32384U 07062A   25345.31630789 -.00000070  00000+0  00000+0 0  9997",
        "tle_line2": "2 32384  55.1834 281.7030 0032234 162.5016  10.7784  2.00577198131746"
      },
      "geometry": {
        "type": "Point",
        "coordinates": [
          -30.84434591643621,
          46.68723210330122
        ]
      }
    }
  ]
}